NORAD_CAT_ID,OBJECT_NAME,OBJECT_TYPE,EPOCH,MEAN_MOTION,ECCENTRICITY,INCLINATION,RA_OF_ASC_NODE,ARG_OF_PERICENTER,MEAN_ANOMALY,BSTAR,MEAN_MOTION_DOT,MEAN_MOTION_DDOT,TLE_LINE0,TLE_LINE1,TLE_LINE2,SEMIMAJOR_AXIS,PERIOD,APOGEE,PERIGEE,DECAYED
53836.0,STARLINK-4778,PAYLOAD,2023-01-05 12:30:38,15.08821234,0.0001804,53.219,98.0275,33.3063,326.8043,-7.6653e-05,-1.507e-05,0.0,0 STARLINK-4778,1 53836U 22114U   23005.52128273 -.00001507  00000-0 -76653-4 0  9991,2 53836  53.2190  98.0275 0001804  33.3063 326.8043 15.08821234 17434,6917.938,95.439,541.0509999999998,538.555,0.0
53836.0,STARLINK-4778,PAYLOAD,2023-01-05 15:41:24,15.08833,0.0002049,53.2178,97.4286,81.4648,278.6576,-6.0864e-05,-1.257e-05,0.0,0 STARLINK-4778,1 53836U 22114U   23005.65375712 -.00001257  00000-0 -60864-4 0  9996,2 53836  53.2178  97.4286 0002049  81.4648 278.6576 15.08833000 17990,6917.901999999999,95.438,541.184,538.349,0.0
53836.0,STARLINK-4778,PAYLOAD,2023-01-06 05:59:52,15.08847564,0.0001314,53.2181,94.7547,81.0663,279.0478,-0.00015243,-2.714e-05,0.0,0 STARLINK-4778,1 53836U 22114U   23006.24991395 -.00002714  00000-0 -15243-3 0  9992,2 53836  53.2181  94.7547 0001314  81.0663 279.0478 15.08847564 17548,6917.857,95.437,540.631,538.813,0.0
53836.0,STARLINK-4778,PAYLOAD,2023-01-06 15:32:10,15.08851125,0.0001781,53.2163,92.9715,44.4397,315.6738,-7.8644e-06,-4.13e-06,0.0,0 STARLINK-4778,1 53836U 22114U   23006.64734517 -.00000413  00000-0 -78644-5 0  9997,2 53836  53.2163  92.9715 0001781  44.4397 315.6738 15.08851125 17601,6917.846,95.437,540.943,538.479,0.0
53836.0,STARLINK-4778,PAYLOAD,2023-01-07 04:15:17,15.08818515,0.000244,53.2173,90.5938,62.1057,298.0182,4.0344e-05,3.53e-06,0.0,0 STARLINK-4778,1 53836U 22114U   23007.17728834  .00000353  00000-0  40344-4 0  9997,2 53836  53.2173  90.5938 0002440  62.1057 298.0182 15.08818515 17687,6917.946,95.439,541.499,538.123,0.0
53836.0,STARLINK-4778,PAYLOAD,2023-01-07 05:50:41,15.08816051,0.0001674,53.2176,90.2948,61.9543,298.1619,7.5103999999999984e-06,-1.69e-06,0.0,0 STARLINK-4778,1 53836U 22114U   23007.24353134 -.00000169  00000-0  75104-5 0  9991,2 53836  53.2176  90.2948 0001674  61.9543 298.1619 15.08816051 18234,6917.9540000000015,95.439,540.977,538.661,0.0
53836.0,STARLINK-4778,PAYLOAD,2023-01-07 21:44:32,15.08829013,0.0001785,53.2174,87.3227,54.5793,305.5365,1.0336e-05,-1.24e-06,0.0,0 STARLINK-4778,1 53836U 22114U   23007.90592966 -.00000124  00000-0  10336-4 0  9998,2 53836  53.2174  87.3227 0001785  54.5793 305.5365 15.08829013 18331,6917.914000000002,95.438,541.014,538.544,0.0
53836.0,STARLINK-4778,PAYLOAD,2023-01-08 05:41:27,15.08838843,0.0001582,53.2179,85.8354,53.8568,306.2571,2.6751e-05,1.38e-06,0.0,0 STARLINK-4778,1 53836U 22114U   23008.23712433  .00000138  00000-0  26751-4 0  9990,2 53836  53.2179  85.8354 0001582  53.8568 306.2571 15.08838843 17840,6917.884,95.438,540.8430000000002,538.655,0.0
53836.0,STARLINK-4778,PAYLOAD,2023-01-08 12:02:59,15.08848837,0.0001668,53.2181,84.6463,56.7483,303.3669,0.00010908,1.449e-05,0.0,0 STARLINK-4778,1 53836U 22114U   23008.50207554  .00001449  00000-0  10908-3 0  9995,2 53836  53.2181  84.6463 0001668  56.7483 303.3669 15.08848837 17888,6917.853,95.437,540.872,538.564,0.0
53836.0,STARLINK-4778,PAYLOAD,2023-01-08 21:35:18,15.08848165,0.000168,53.2185,82.8624,52.8942,307.2203,-8.6996e-06,-4.27e-06,0.0,0 STARLINK-4778,1 53836U 22114U   23008.89951875 -.00000427  00000-0 -86996-5 0  9998,2 53836  53.2185  82.8624 0001680  52.8942 307.2203 15.08848165 18480,6917.855,95.437,540.883,538.558,0.0
53836.0,STARLINK-4778,PAYLOAD,2023-01-09 05:32:14,15.08833302,0.0001629999999999,53.2189,81.3754,57.7105,302.4045,8.753799999999999e-05,1.105e-05,0.0,0 STARLINK-4778,1 53836U 22114U   23009.23072768  .00001105  00000-0  87538-4 0  9996,2 53836  53.2189  81.3754 0001630  57.7105 302.4045 15.08833302 17995,6917.901,95.438,540.893,538.638,0.0
53836.0,STARLINK-4778,PAYLOAD,2023-01-09 11:53:46,15.08840678,0.0001812,53.2196,80.1863,70.1687,289.9501,0.00018592,2.672e-05,0.0,0 STARLINK-4778,1 53836U 22114U   23009.49567980  .00002672  00000-0  18592-3 0  9992,2 53836  53.2196  80.1863 0001812  70.1687 289.9501 15.08840678 18572,6917.8780000000015,95.438,540.997,538.49,0.0
53836.0,STARLINK-4778,PAYLOAD,2023-01-09 15:04:32,15.08844119,0.0001661,53.2196,79.5919,74.5439,285.5736,0.00017313,2.469e-05,0.0,0 STARLINK-4778,1 53836U 22114U   23009.62815770  .00002469  00000-0  17313-3 0  9994,2 53836  53.2196  79.5919 0001661  74.5439 285.5736 15.08844119 18050,6917.868,95.437,540.882,538.5840000000002,0.0
53836.0,STARLINK-4778,PAYLOAD,2023-01-09 21:26:06,15.08832527,0.0001816,53.2165,78.4006,64.8767,295.2414,1.7195e-05,-1.4e-07,0.0,0 STARLINK-4778,1 53836U 22114U   23009.89313064 -.00000014  00000-0  17195-4 0  9996,2 53836  53.2165  78.4006 0001816  64.8767 295.2414 15.08832527 18634,6917.903,95.438,541.025,538.512,0.0
53836.0,STARLINK-4778,PAYLOAD,2023-01-10 08:33:48,15.08840195,0.0001663,53.2201,76.3214,76.2745,283.8432,-5.8047e-05,-1.212e-05,0.0,0 STARLINK-4778,1 53836U 22114U   23010.35680895 -.00001212  00000-0 -58047-4 0  9991,2 53836  53.2201  76.3214 0001663  76.2745 283.8432 15.08840195 18167,6917.88,95.438,540.895,538.594,0.0
53836.0,STARLINK-4778,PAYLOAD,2023-01-10 11:44:34,15.08844038,0.0001746,53.2192,75.7261,75.5106,284.608,-3.0047e-05,-7.66e-06,0.0,0 STARLINK-4778,1 53836U 22114U   23010.48928552 -.00000766  00000-0 -30047-4 0  9993,2 53836  53.2192  75.7261 0001746  75.5106 284.6080 15.08844038 18726,6917.868,95.437,540.941,538.525,0.0
53836.0,STARLINK-4778,PAYLOAD,2023-01-11 11:35:20,15.08855884,0.0001095999999999,53.2159,71.2621,106.8985,253.2127,7.6162e-05,9.25e-06,0.0,0 STARLINK-4778,1 53836U 22114U   23011.48287287  .00000925  00000-0  76162-4 0  9990,2 53836  53.2159  71.2621 0001096 106.8985 253.2127 15.08855884 18333,6917.831999999999,95.437,540.455,538.939,0.0
53836.0,STARLINK-4778,PAYLOAD,2023-01-11 21:07:39,15.08847222,0.0001423,53.2179,69.4803,79.9478,280.1675,1.0463e-05,-1.21e-06,0.0,0 STARLINK-4778,1 53836U 22114U   23011.88032104 -.00000121  00000-0  10463-4 0  9991,2 53836  53.2179  69.4803 0001423  79.9478 280.1675 15.08847222 18937,6917.858,95.437,540.7080000000002,538.739,0.0
53836.0,STARLINK-4778,PAYLOAD,2023-01-12 09:50:45,15.08838765,0.0001357,53.2179,67.1026,82.4288,277.6858,0.00013083,1.795e-05,0.0,0 STARLINK-4778,1 53836U 22114U   23012.41024316  .00001795  00000-0  13083-3 0  9994,2 53836  53.2179  67.1026 0001357  82.4288 277.6858 15.08838765 18478,6917.884,95.438,540.688,538.81,0.0
53836.0,STARLINK-4778,PAYLOAD,2023-01-12 20:58:26,15.08847444,0.0001230999999999,53.2183,65.0182,90.7686,269.3448,6.6529e-05,7.71e-06,0.0,0 STARLINK-4778,1 53836U 22114U   23012.87391741  .00000771  00000-0  66529-4 0  9990,2 53836  53.2183  65.0182 0001231  90.7686 269.3448 15.08847444 19083,6917.858,95.437,540.5740000000002,538.871,0.0
53836.0,STARLINK-4778,PAYLOAD,2023-01-13 09:41:31,15.08846027,0.0001291,53.2185,62.639,106.5242,253.5892,-3.4425e-05,-8.36e-06,0.0,0 STARLINK-4778,1 53836U 22114U   23013.40384224 -.00000836  00000-0 -34425-4 0  9992,2 53836  53.2185  62.6390 0001291 106.5242 253.5892 15.08846027 18622,6917.861999999999,95.437,540.62,538.8340000000001,0.0
53836.0,STARLINK-4778,PAYLOAD,2023-01-14 06:21:33,15.08831273,0.0001142,53.2175,58.7745,98.2668,261.8454,-3.1332e-05,-7.86e-06,0.0,0 STARLINK-4778,1 53836U 22114U   23014.26497470 -.00000786  00000-0 -31332-4 0  9993,2 53836  53.2175  58.7745 0001142  98.2668 261.8454 15.08831273 18752,6917.906999999999,95.438,540.562,538.982,0.0
53836.0,STARLINK-4778,PAYLOAD,2023-01-15 03:01:34,15.08835818,0.000101,53.2182,54.9106,87.9065,272.2043,0.00013278,1.826e-05,0.0,0 STARLINK-4778,1 53836U 22114U   23015.12609081  .00001826  00000-0  13278-3 0  9994,2 53836  53.2182  54.9106 0001010  87.9065 272.2043 15.08835818 18882,6917.893,95.438,540.457,539.059,0.0
53836.0,STARLINK-4778,PAYLOAD,2023-01-15 09:23:06,15.0884054,0.000102,53.2187,53.7243,76.6464,283.4642,0.00019515,2.819e-05,0.0,0 STARLINK-4778,1 53836U 22114U   23015.39104774  .00002819  00000-0  19515-3 0  9995,2 53836  53.2187  53.7243 0001020  76.6464 283.4642 15.08840540 19467,6917.879,95.438,540.4490000000001,539.038,0.0
53836.0,STARLINK-4778,PAYLOAD,2023-01-15 18:55:24,15.08854342,7.68e-05,53.2185,51.9363,86.5834,273.5246,0.00012103,1.64e-05,0.0,0 STARLINK-4778,1 53836U 22114U   23015.78847658  .00001640  00000-0  12103-3 0  9990,2 53836  53.2185  51.9363 0000768  86.5834 273.5246 15.08854342 18988,6917.837,95.437,540.2330000000001,539.17,0.0
53836.0,STARLINK-4778,PAYLOAD,2023-01-16 06:03:06,15.08846292,9.9e-05,53.2185,49.8555,85.9049,274.2056,0.00015577,2.193e-05,0.0,0 STARLINK-4778,1 53836U 22114U   23016.25216364  .00002193  00000-0  15577-3 0  9999,2 53836  53.2185  49.8555 0000990  85.9049 274.2056 15.08846292 19056,6917.861,95.437,540.411,539.0409999999999,0.0
53836.0,STARLINK-4778,PAYLOAD,2023-01-16 09:13:52,15.08850935,0.0001084,53.2198,49.2655,102.5662,257.5452,0.00025038,3.7e-05,0.0,0 STARLINK-4778,1 53836U 22114U   23016.38463674  .00003700  00000-0  25038-3 0  9999,2 53836  53.2198  49.2655 0001084 102.5662 257.5452 15.08850935 19072,6917.847,95.437,540.462,538.962,0.0
53836.0,STARLINK-4778,PAYLOAD,2023-01-16 18:46:11,15.08848731,6.68e-05,53.2182,47.4744,42.2654,317.8389,0.0001602,2.263e-05,0.0,0 STARLINK-4778,1 53836U 22114U   23016.78207817  .00002263  00000-0  16020-3 0  9992,2 53836  53.2182  47.4744 0000668  42.2654 317.8389 15.08848731 19678,6917.854,95.437,540.181,539.257,0.0
53836.0,STARLINK-4778,PAYLOAD,2023-01-16 23:32:24,15.0880547,9.21e-05,53.2189,46.5837,75.3777,284.7318,-0.00025902,-4.404e-05,0.0,0 STARLINK-4778,1 53836U 22114U   23016.98083939 -.00004404  00000-0 -25902-3 0  9991,2 53836  53.2189  46.5837 0000921  75.3777 284.7318 15.08805470 19164,6917.986,95.44,540.488,539.214,0.0
